{
  "type": "FeatureCollection",
  "features": [
    {
      "type": "Feature",
      "properties": {
        "norad_id": 35773,
        "name": "COSMOS 2251 DEB",
        "group": "cosmos-2251-debris",
        "lat": 14.482920275571253,
        "lon": -43.67570614037804,
        "alt_km": 688.0037334934495,
        "timestamp": "2025-12-27T17:24:57.804420+00:00",
        "meta_object_name": "COSMOS 2251 DEB",
        "meta_object_id": "1993-036ART",
        "meta_epoch": "2025-12-27T05:51:09.224064",
        "meta_mean_motion": 14.6215252,
        "meta_eccentricity": 0.0045146,
        "meta_inclination": 74.0084,
        "meta_ra_of_asc_node": 313,
        "meta_arg_of_pericenter": 108.6592,
        "meta_mean_anomaly": 251.9484,
        "meta_ephemeris_type": 0,
        "meta_classification_type": "U",
        "meta_norad_cat_id": 35773,
        "meta_element_set_no": 999,
        "meta_rev_at_epoch": 87051,
        "meta_bstar": 0.00072197,
        "meta_mean_motion_dot": 3.656e-05,
        "meta_mean_motion_ddot": 0,
        "tle_line1": "1 35773U 93036ART 25361.24385676  .00003656  00000+0  72197-3 0  9992",
        "tle_line2": "2 35773  74.0084 313.0000 0045146 108.6592 251.9484 14.62152520870510"
      },
      "geometry": {
        "type": "Point",
        "coordinates": [
          -43.67570614037804,
          14.482920275571253
        ]
      }
    },
    {
      "type": "Feature",
      "properties": {
        "norad_id": 35777,
        "name": "COSMOS 2251 DEB",
        "group": "cosmos-2251-debris",
        "lat": 34.38347413960501,
        "lon": 107.30136938396637,
        "alt_km": 865.4738470858338,
        "timestamp": "2025-12-27T17:24:57.804430+00:00",
        "meta_object_name": "COSMOS 2251 DEB",
        "meta_object_id": "1993-036ARX",
        "meta_epoch": "2025-12-24T14:23:44.831616",
        "meta_mean_motion": 13.413075,
        "meta_eccentricity": 0.04517519,
        "meta_inclination": 73.7706,
        "meta_ra_of_asc_node": 303.7897,
        "meta_arg_of_pericenter": 196.885,
        "meta_mean_anomaly": 342.3935,
        "meta_ephemeris_type": 0,
        "meta_classification_type": "U",
        "meta_norad_cat_id": 35777,
        "meta_element_set_no": 999,
        "meta_rev_at_epoch": 79843,
        "meta_bstar": 0.00021081744,
        "meta_mean_motion_dot": 1.91e-06,
        "meta_mean_motion_ddot": 0,
        "tle_line1": "1 35777U 93036ARX 25358.59982444  .00000191  00000+0  21082-3 0  9994",
        "tle_line2": "2 35777  73.7706 303.7897 0451751 196.8850 342.3935 13.41307500798432"
      },
      "geometry": {
        "type": "Point",
        "coordinates": [
          107.30136938396637,
          34.38347413960501
        ]
      }
    },
    {
      "type": "Feature",
      "properties": {
        "norad_id": 35784,
        "name": "COSMOS 2251 DEB",
        "group": "cosmos-2251-debris",
        "lat": 70.40759864203434,
        "lon": -171.95748307397855,
        "alt_km": 717.0055950646029,
        "timestamp": "2025-12-27T17:24:57.804441+00:00",
        "meta_object_name": "COSMOS 2251 DEB",
        "meta_object_id": "1993-036ASE",
        "meta_epoch": "2025-12-26T11:08:36.772800",
        "meta_mean_motion": 14.50074118,
        "meta_eccentricity": 0.0041168,
        "meta_inclination": 74.0381,
        "meta_ra_of_asc_node": 63.9353,
        "meta_arg_of_pericenter": 191.9946,
        "meta_mean_anomaly": 168.0239,
        "meta_ephemeris_type": 0,
        "meta_classification_type": "U",
        "meta_norad_cat_id": 35784,
        "meta_element_set_no": 999,
        "meta_rev_at_epoch": 65905,
        "meta_bstar": 0.00028968,
        "meta_mean_motion_dot": 1.108e-05,
        "meta_mean_motion_ddot": 0,
        "tle_line1": "1 35784U 93036ASE 25360.46431450  .00001108  00000+0  28968-3 0  9996",
        "tle_line2": "2 35784  74.0381  63.9353 0041168 191.9946 168.0239 14.50074118659055"
      },
      "geometry": {
        "type": "Point",
        "coordinates": [
          -171.95748307397855,
          70.40759864203434
        ]
      }
    },
    {
      "type": "Feature",
      "properties": {
        "norad_id": 35786,
        "name": "COSMOS 2251 DEB",
        "group": "cosmos-2251-debris",
        "lat": 3.7637694470002536,
        "lon": -166.2359264106811,
        "alt_km": 655.781279764813,
        "timestamp": "2025-12-27T17:24:57.804452+00:00",
        "meta_object_name": "COSMOS 2251 DEB",
        "meta_object_id": "1993-036ASG",
        "meta_epoch": "2025-12-26T01:19:16.036608",
        "meta_mean_motion": 14.66353494,
        "meta_eccentricity": 0.00330564,
        "meta_inclination": 74.0139,
        "meta_ra_of_asc_node": 18.068,
        "meta_arg_of_pericenter": 144.2742,
        "meta_mean_anomaly": 216.0648,
        "meta_ephemeris_type": 0,
        "meta_classification_type": "U",
        "meta_norad_cat_id": 35786,
        "meta_element_set_no": 999,
        "meta_rev_at_epoch": 73603,
        "meta_bstar": 0.00088717905,
        "meta_mean_motion_dot": 4.912e-05,
        "meta_mean_motion_ddot": 0,
        "tle_line1": "1 35786U 93036ASG 25360.05504672  .00004912  00000+0  88718-3 0  9995",
        "tle_line2": "2 35786  74.0139  18.0680 0033056 144.2742 216.0648 14.66353494736030"
      },
      "geometry": {
        "type": "Point",
        "coordinates": [
          -166.2359264106811,
          3.7637694470002536
        ]
      }
    },
    {
      "type": "Feature",
      "properties": {
        "norad_id": 35789,
        "name": "COSMOS 2251 DEB",
        "group": "cosmos-2251-debris",
        "lat": 33.83008069706433,
        "lon": -92.07670258902569,
        "alt_km": 744.0796146965058,
        "timestamp": "2025-12-27T17:24:57.804462+00:00",
        "meta_object_name": "COSMOS 2251 DEB",
        "meta_object_id": "1993-036ASK",
        "meta_epoch": "2025-12-25T00:02:45.656448",
        "meta_mean_motion": 14.35995111,
        "meta_eccentricity": 0.00478637,
        "meta_inclination": 74.0386,
        "meta_ra_of_asc_node": 261.8623,
        "meta_arg_of_pericenter": 358.287,
        "meta_mean_anomaly": 1.8111,
        "meta_ephemeris_type": 0,
        "meta_classification_type": "U",
        "meta_norad_cat_id": 35789,
        "meta_element_set_no": 999,
        "meta_rev_at_epoch": 61403,
        "meta_bstar": 0.00012355223,
        "meta_mean_motion_dot": 3.37e-06,
        "meta_mean_motion_ddot": 0,
        "tle_line1": "1 35789U 93036ASK 25359.00191732  .00000337  00000+0  12355-3 0  9991",
        "tle_line2": "2 35789  74.0386 261.8623 0047863 358.2870   1.8111 14.35995111614036"
      },
      "geometry": {
        "type": "Point",
        "coordinates": [
          -92.07670258902569,
          33.83008069706433
        ]
      }
    },
    {
      "type": "Feature",
      "properties": {
        "norad_id": 35793,
        "name": "COSMOS 2251 DEB",
        "group": "cosmos-2251-debris",
        "lat": -54.453586817720826,
        "lon": -125.65853689328131,
        "alt_km": 640.6115851778859,
        "timestamp": "2025-12-27T17:24:57.804473+00:00",
        "meta_object_name": "COSMOS 2251 DEB",
        "meta_object_id": "1993-036ASP",
        "meta_epoch": "2025-12-22T19:59:17.179008",
        "meta_mean_motion": 14.78898886,
        "meta_eccentricity": 0.00021779,
        "meta_inclination": 74.0403,
        "meta_ra_of_asc_node": 40.3457,
        "meta_arg_of_pericenter": 77.0765,
        "meta_mean_anomaly": 40.8773,
        "meta_ephemeris_type": 0,
        "meta_classification_type": "U",
        "meta_norad_cat_id": 35793,
        "meta_element_set_no": 999,
        "meta_rev_at_epoch": 65946,
        "meta_bstar": 0.0016902624,
        "meta_mean_motion_dot": 0.0001245,
        "meta_mean_motion_ddot": 0,
        "tle_line1": "1 35793U 93036ASP 25356.83283772  .00012450  00000+0  16903-2 0  9991",
        "tle_line2": "2 35793  74.0403  40.3457 0002177  77.0765  40.8773 14.78898886659465"
      },
      "geometry": {
        "type": "Point",
        "coordinates": [
          -125.65853689328131,
          -54.453586817720826
        ]
      }
    },
    {
      "type": "Feature",
      "properties": {
        "norad_id": 35824,
        "name": "COSMOS 2251 DEB",
        "group": "cosmos-2251-debris",
        "lat": 59.335463344976255,
        "lon": 52.2983135866111,
        "alt_km": 793.0347890868006,
        "timestamp": "2025-12-27T17:24:57.804483+00:00",
        "meta_object_name": "COSMOS 2251 DEB",
        "meta_object_id": "1993-036ASW",
        "meta_epoch": "2025-12-22T19:31:45.102144",
        "meta_mean_motion": 13.88451582,
        "meta_eccentricity": 0.02474981,
        "meta_inclination": 73.8455,
        "meta_ra_of_asc_node": 31.474,
        "meta_arg_of_pericenter": 115.7236,
        "meta_mean_anomaly": 246.9666,
        "meta_ephemeris_type": 0,
        "meta_classification_type": "U",
        "meta_norad_cat_id": 35824,
        "meta_element_set_no": 999,
        "meta_rev_at_epoch": 84367,
        "meta_bstar": 0.00094378544,
        "meta_mean_motion_dot": 1.423e-05,
        "meta_mean_motion_ddot": 0,
        "tle_line1": "1 35824U 93036ASW 25356.81371646  .00001423  00000+0  94379-3 0  9994",
        "tle_line2": "2 35824  73.8455  31.4740 0247498 115.7236 246.9666 13.88451582843676"
      },
      "geometry": {
        "type": "Point",
        "coordinates": [
          52.2983135866111,
          59.335463344976255
        ]
      }
    }
  ]
}